ONEWEB-0196             
1 48218U 21031J   25363.85496881 -.00000115  00000+0 -34413-3 0  9994
2 48218  87.9001 323.4473 0001589  82.0572 278.0738 13.14504682225988
ONEWEB-0183             
1 48219U 21031K   25363.82960683  .00000042  00000+0  77633-4 0  9997
2 48219  87.8995 323.4552 0001845  87.7170 272.4171 13.14502552226073
ONEWEB-0185             
1 48220U 21031L   25363.85575837 -.00000084  00000+0 -25977-3 0  9996
2 48220  87.9009 323.4294 0001638  95.5288 264.6029 13.14504648226008
ONEWEB-0187             
1 48221U 21031M   25363.83581199 -.00000093  00000+0 -28590-3 0  9997
2 48221  87.9003 323.4721 0001528  86.4499 273.6805 13.14502137226013
ONEWEB-0192             
1 48222U 21031N   25363.42523566  .00000274  00000+0  70421-3 0  9996
2 48222  87.8995 323.5432 0001726  82.0811 278.0515 13.14502159225877
ONEWEB-0219             
1 48223U 21031P   25363.40461134  .00000062  00000+0  13143-3 0  9990
2 48223  87.9005 323.5270 0001606  88.8196 271.3117 13.14501532226079
ONEWEB-0202             
1 48224U 21031Q   25363.46169913 -.00000238  00000+0 -67704-3 0  9996
2 48224  87.8999 323.5272 0001253  61.9282 298.1974 13.14502166226060
ONEWEB-0204             
1 48225U 21031R   25363.41969225  .00000322  00000+0  83433-3 0  9995
2 48225  87.9007 323.5263 0001880  90.5782 269.5563 13.14504599225956
